STARLINK-30505          
1 57972U 23151J   26067.11927383  .00035659  00000+0  13308-2 0  9991
2 57972  43.0004 345.0806 0001631 252.0236 108.0438 15.26785781135520
REAL                    
1 64875U 25154G   26068.72233414  .00022901  00000+0  82904-3 0  9994
2 64875  97.4133 137.2581 0001853 118.5876 241.5550 15.28408058 34830
